CCSDS_OMM_VERS = 2.0
CREATION_DATE  = 
ORIGINATOR     = 

OBJECT_NAME    = SL-16 R/B
OBJECT_ID      = 1998-045B
CENTER_NAME    = EARTH
REF_FRAME      = TEME
TIME_SYSTEM    = UTC
MEAN_ELEMENT_THEORY = SGP/SGP4

EPOCH          = 2026-03-14T07:20:03.376032
MEAN_MOTION    = 14.16192635
ECCENTRICITY   = .00070375
INCLINATION    = 71.0120
RA_OF_ASC_NODE = 171.8677
ARG_OF_PERICENTER = 0.9210
MEAN_ANOMALY   = 359.1925

EPHEMERIS_TYPE = 0
CLASSIFICATION_TYPE = U
NORAD_CAT_ID   = 25407
ELEMENT_SET_NO = 999
REV_AT_EPOCH   = 42775
BSTAR          = .17538318E-3
MEAN_MOTION_DOT = .3E-5
MEAN_MOTION_DDOT = 0

CCSDS_OMM_VERS = 2.0
CREATION_DATE  = 
ORIGINATOR     = 

OBJECT_NAME    = ISS (ZARYA)
OBJECT_ID      = 1998-067A
CENTER_NAME    = EARTH
REF_FRAME      = TEME
TIME_SYSTEM    = UTC
MEAN_ELEMENT_THEORY = SGP/SGP4

EPOCH          = 2026-03-13T16:59:24.155808
MEAN_MOTION    = 15.48633802
ECCENTRICITY   = .00078842
INCLINATION    = 51.6324
RA_OF_ASC_NODE = 52.4887
ARG_OF_PERICENTER = 189.2977
MEAN_ANOMALY   = 170.7866

EPHEMERIS_TYPE = 0
CLASSIFICATION_TYPE = U
NORAD_CAT_ID   = 25544
ELEMENT_SET_NO = 999
REV_AT_EPOCH   = 55695
BSTAR          = .22432227E-3
MEAN_MOTION_DOT = .1178E-3
MEAN_MOTION_DDOT = 0

CCSDS_OMM_VERS = 2.0
CREATION_DATE  = 
ORIGINATOR     = 

OBJECT_NAME    = CZ-4B R/B
OBJECT_ID      = 1999-025C
CENTER_NAME    = EARTH
REF_FRAME      = TEME
TIME_SYSTEM    = UTC
MEAN_ELEMENT_THEORY = SGP/SGP4

EPOCH          = 2026-03-14T02:36:23.808960
MEAN_MOTION    = 14.18266293
ECCENTRICITY   = .00365148
INCLINATION    = 98.6618
RA_OF_ASC_NODE = 117.2853
ARG_OF_PERICENTER = 333.7622
MEAN_ANOMALY   = 80.3047

EPHEMERIS_TYPE = 0
CLASSIFICATION_TYPE = U
NORAD_CAT_ID   = 25732
ELEMENT_SET_NO = 999
REV_AT_EPOCH   = 38879
BSTAR          = .52811114E-4
MEAN_MOTION_DOT = .66E-6
MEAN_MOTION_DDOT = 0

CCSDS_OMM_VERS = 2.0
CREATION_DATE  = 
ORIGINATOR     = 

OBJECT_NAME    = OKEAN-O
OBJECT_ID      = 1999-039A
CENTER_NAME    = EARTH
REF_FRAME      = TEME
TIME_SYSTEM    = UTC
MEAN_ELEMENT_THEORY = SGP/SGP4

EPOCH          = 2026-03-14T04:20:14.036064
MEAN_MOTION    = 14.80343672
ECCENTRICITY   = .00011184
INCLINATION    = 97.9432
RA_OF_ASC_NODE = 133.0264
ARG_OF_PERICENTER = 71.4891
MEAN_ANOMALY   = 288.6442

EPHEMERIS_TYPE = 0
CLASSIFICATION_TYPE = U
NORAD_CAT_ID   = 25860
ELEMENT_SET_NO = 999
REV_AT_EPOCH   = 43505
BSTAR          = .11143302E-3
MEAN_MOTION_DOT = .798E-5
MEAN_MOTION_DDOT = 0

CCSDS_OMM_VERS = 2.0
CREATION_DATE  = 
ORIGINATOR     = 

OBJECT_NAME    = SL-16 R/B
OBJECT_ID      = 1999-039B
CENTER_NAME    = EARTH
REF_FRAME      = TEME
TIME_SYSTEM    = UTC
MEAN_ELEMENT_THEORY = SGP/SGP4

EPOCH          = 2026-03-14T03:45:08.947584
MEAN_MOTION    = 14.81738421
ECCENTRICITY   = .00136429
INCLINATION    = 97.9957
RA_OF_ASC_NODE = 132.2464
ARG_OF_PERICENTER = 240.1784
MEAN_ANOMALY   = 119.8073

EPHEMERIS_TYPE = 0
CLASSIFICATION_TYPE = U
NORAD_CAT_ID   = 25861
ELEMENT_SET_NO = 999
REV_AT_EPOCH   = 43752
BSTAR          = .89186619E-4
MEAN_MOTION_DOT = .65E-5
MEAN_MOTION_DDOT = 0

CCSDS_OMM_VERS = 2.0
CREATION_DATE  = 
ORIGINATOR     = 

OBJECT_NAME    = DELTA 2 R/B
OBJECT_ID      = 1999-041E
CENTER_NAME    = EARTH
REF_FRAME      = TEME
TIME_SYSTEM    = UTC
MEAN_ELEMENT_THEORY = SGP/SGP4

EPOCH          = 2026-03-14T06:08:07.129248
MEAN_MOTION    = 14.11852957
ECCENTRICITY   = .05024846
INCLINATION    = 51.7620
RA_OF_ASC_NODE = 283.0424
ARG_OF_PERICENTER = 1.8989
MEAN_ANOMALY   = 358.3704

EPHEMERIS_TYPE = 0
CLASSIFICATION_TYPE = U
NORAD_CAT_ID   = 25876
ELEMENT_SET_NO = 999
REV_AT_EPOCH   = 36367
BSTAR          = .26128937E-3
MEAN_MOTION_DOT = .1386E-4
MEAN_MOTION_DDOT = 0

CCSDS_OMM_VERS = 2.0
CREATION_DATE  = 
ORIGINATOR     = 

OBJECT_NAME    = HELIOS 1B
OBJECT_ID      = 1999-064A
CENTER_NAME    = EARTH
REF_FRAME      = TEME
TIME_SYSTEM    = UTC
MEAN_ELEMENT_THEORY = SGP/SGP4

EPOCH          = 2026-03-14T06:53:53.153664
MEAN_MOTION    = 14.87719734
ECCENTRICITY   = .00024306
INCLINATION    = 98.1689
RA_OF_ASC_NODE = 335.6656
ARG_OF_PERICENTER = 69.5603
MEAN_ANOMALY   = 290.5873

EPHEMERIS_TYPE = 0
CLASSIFICATION_TYPE = U
NORAD_CAT_ID   = 25977
ELEMENT_SET_NO = 999
REV_AT_EPOCH   = 68594
BSTAR          = .22605569E-3
MEAN_MOTION_DOT = .2002E-4
MEAN_MOTION_DDOT = 0

CCSDS_OMM_VERS = 2.0
CREATION_DATE  = 
ORIGINATOR     = 

OBJECT_NAME    = TERRA
OBJECT_ID      = 1999-068A
CENTER_NAME    = EARTH
REF_FRAME      = TEME
TIME_SYSTEM    = UTC
MEAN_ELEMENT_THEORY = SGP/SGP4

EPOCH          = 2026-03-14T05:28:11.840448
MEAN_MOTION    = 14.61020069
ECCENTRICITY   = .0002969
INCLINATION    = 97.9584
RA_OF_ASC_NODE = 126.4891
ARG_OF_PERICENTER = 141.3052
MEAN_ANOMALY   = 240.7834

EPHEMERIS_TYPE = 0
CLASSIFICATION_TYPE = U
NORAD_CAT_ID   = 25994
ELEMENT_SET_NO = 999
REV_AT_EPOCH   = 39574
BSTAR          = .10978299E-3
MEAN_MOTION_DOT = .494E-5
MEAN_MOTION_DDOT = 0

CCSDS_OMM_VERS = 2.0
CREATION_DATE  = 
ORIGINATOR     = 

OBJECT_NAME    = SL-16 R/B
OBJECT_ID      = 2000-006B
CENTER_NAME    = EARTH
REF_FRAME      = TEME
TIME_SYSTEM    = UTC
MEAN_ELEMENT_THEORY = SGP/SGP4

EPOCH          = 2026-03-14T07:43:58.293408
MEAN_MOTION    = 14.15824837
ECCENTRICITY   = .00164949
INCLINATION    = 71.0004
RA_OF_ASC_NODE = 88.0959
ARG_OF_PERICENTER = 183.2936
MEAN_ANOMALY   = 176.8082

EPHEMERIS_TYPE = 0
CLASSIFICATION_TYPE = U
NORAD_CAT_ID   = 26070
ELEMENT_SET_NO = 999
REV_AT_EPOCH   = 34921
BSTAR          = -.76448774E-4
MEAN_MOTION_DOT = -.198E-5
MEAN_MOTION_DDOT = 0

CCSDS_OMM_VERS = 2.0
CREATION_DATE  = 
ORIGINATOR     = 

OBJECT_NAME    = TITAN 4B R/B
OBJECT_ID      = 2000-047B
CENTER_NAME    = EARTH
REF_FRAME      = TEME
TIME_SYSTEM    = UTC
MEAN_ELEMENT_THEORY = SGP/SGP4

EPOCH          = 2026-03-14T06:26:18.823488
MEAN_MOTION    = 15.09612661
ECCENTRICITY   = .00386823
INCLINATION    = 67.9904
RA_OF_ASC_NODE = 27.6345
ARG_OF_PERICENTER = 30.0055
MEAN_ANOMALY   = 330.3299

EPHEMERIS_TYPE = 0
CLASSIFICATION_TYPE = U
NORAD_CAT_ID   = 26474
ELEMENT_SET_NO = 999
REV_AT_EPOCH   = 39360
BSTAR          = .32759964E-3
MEAN_MOTION_DOT = .5239E-4
MEAN_MOTION_DDOT = 0

CCSDS_OMM_VERS = 2.0
CREATION_DATE  = 
ORIGINATOR     = 

OBJECT_NAME    = ENVISAT
OBJECT_ID      = 2002-009A
CENTER_NAME    = EARTH
REF_FRAME      = TEME
TIME_SYSTEM    = UTC
MEAN_ELEMENT_THEORY = SGP/SGP4

EPOCH          = 2026-03-14T02:55:20.042400
MEAN_MOTION    = 14.39038718
ECCENTRICITY   = .00013142
INCLINATION    = 98.3735
RA_OF_ASC_NODE = 26.6137
ARG_OF_PERICENTER = 83.1274
MEAN_ANOMALY   = 287.3603

EPHEMERIS_TYPE = 0
CLASSIFICATION_TYPE = U
NORAD_CAT_ID   = 27386
ELEMENT_SET_NO = 999
REV_AT_EPOCH   = 25981
BSTAR          = .59243376E-4
MEAN_MOTION_DOT = .14E-5
MEAN_MOTION_DDOT = 0

CCSDS_OMM_VERS = 2.0
CREATION_DATE  = 
ORIGINATOR     = 

OBJECT_NAME    = IDEFIX & ARIANE 42P R/B
OBJECT_ID      = 2002-021B
CENTER_NAME    = EARTH
REF_FRAME      = TEME
TIME_SYSTEM    = UTC
MEAN_ELEMENT_THEORY = SGP/SGP4

EPOCH          = 2026-03-14T06:00:35.900928
MEAN_MOTION    = 14.31029658
ECCENTRICITY   = .00118421
INCLINATION    = 98.5872
RA_OF_ASC_NODE = 11.8023
ARG_OF_PERICENTER = 168.6250
MEAN_ANOMALY   = 191.5203

EPHEMERIS_TYPE = 0
CLASSIFICATION_TYPE = U
NORAD_CAT_ID   = 27422
ELEMENT_SET_NO = 999
REV_AT_EPOCH   = 24467
BSTAR          = .13244582E-3
MEAN_MOTION_DOT = .305E-5
MEAN_MOTION_DDOT = 0

