SL-16 R/B               
1 25407U 98045B   26073.30559463  .00000300  00000+0  17538-3 0  9996
2 25407  71.0120 171.8677 0007037   0.9210 359.1925 14.16192635427754
ISS (ZARYA)             
1 25544U 98067A   26072.70791847  .00011780  00000+0  22432-3 0  9992
2 25544  51.6324  52.4887 0007884 189.2977 170.7866 15.48633802556952
CZ-4B R/B               
1 25732U 99025C   26073.10860890  .00000066  00000+0  52811-4 0  9996
2 25732  98.6618 117.2853 0036514 333.7622  80.3047 14.18266293388790
OKEAN-O                 
1 25860U 99039A   26073.18071801  .00000798  00000+0  11143-3 0  9991
2 25860  97.9432 133.0264 0001118  71.4891 288.6442 14.80343672435056
SL-16 R/B               
1 25861U 99039B   26073.15635356  .00000650  00000+0  89187-4 0  9991
2 25861  97.9957 132.2464 0013642 240.1784 119.8073 14.81738421437523
DELTA 2 R/B             
1 25876U 99041E   26073.25563807  .00001386  00000+0  26129-3 0  9995
2 25876  51.7620 283.0424 0502484   1.8989 358.3704 14.11852957363670
HELIOS 1B               
1 25977U 99064A   26073.28742076  .00002002  00000+0  22606-3 0  9994
2 25977  98.1689 335.6656 0002430  69.5603 290.5873 14.87719734685942
TERRA                   
1 25994U 99068A   26073.22791482  .00000494  00000+0  10978-3 0  9998
2 25994  97.9584 126.4891 0002969 141.3052 240.7834 14.61020069395741
SL-16 R/B               
1 26070U 00006B   26073.32220247 -.00000198  00000+0 -76449-4 0  9994
2 26070  71.0004  88.0959 0016494 183.2936 176.8082 14.15824837349218
TITAN 4B R/B            
1 26474U 00047B   26073.26827342  .00005239  00000+0  32760-3 0  9995
2 26474  67.9904  27.6345 0038682  30.0055 330.3299 15.09612661393604
ENVISAT                 
1 27386U 02009A   26073.12175975  .00000140  00000+0  59243-4 0  9993
2 27386  98.3735  26.6137 0001314  83.1274 287.3603 14.39038718259810
IDEFIX & ARIANE 42P R/B 
1 27422U 02021B   26073.25041552  .00000305  00000+0  13245-3 0  9999
2 27422  98.5872  11.8023 0011842 168.6250 191.5203 14.31029658244670
